FLOCK 4BE-7             
1 60481U 24149P   26201.20537885  .00015205  00000+0  36305-3 0  9990
2 60481  97.3745 284.5858 0004489 136.7116 223.4484 15.41609773107330
TOMORROW-S2             
1 60485U 24149T   26201.19575530  .00004323  00000+0  13729-3 0  9995
2 60485  97.3805 282.0932 0004193 136.8595 223.2977 15.33183185107140
FLOCK 4BE-36            
1 60486U 24149U   26201.18687729  .00010513  00000+0  23529-3 0  9996
2 60486  97.3731 286.0318 0005104 138.8538 221.3096 15.43643230107440
FLOCK 4BE-25            
1 60487U 24149V   26201.17724237  .00008513  00000+0  21807-3 0  9996
2 60487  97.3783 284.5693 0003940 131.1113 229.0473 15.39628075107313
FLOCK 4BE-31            
1 60488U 24149W   26201.18543420  .00012673  00000+0  26797-3 0  9996
2 60488  97.3787 286.9892 0004092 138.4531 221.7030 15.45281314107471
FLOCK 4BE-20            
1 60489U 24149X   26201.22176915  .00006959  00000+0  18300-3 0  9994
2 60489  97.3681 283.4099 0005342 139.6915 220.4727 15.38888737107297
FLOCK 4BE-23            
1 60490U 24149Y   26201.22111438  .00008055  00000+0  21452-3 0  9996
2 60490  97.3766 283.8024 0004987 143.1830 216.9759 15.38446010107272
FLOCK 4BE-17            
1 60492U 24149AA  26201.48361059  .00009764  00000+0  24138-3 0  9994
2 60492  97.3759 285.1357 0004631 133.6849 226.4782 15.40670706107388
NUSAT-50 (NANCY ROMAN)  
1 60493U 24149AB  26201.19337400  .00005066  00000+0  17504-3 0  9996
2 60493  97.3775 282.2297 0004852  90.2689 269.9108 15.30369458107172
FLOCK 4BE-22            
1 60494U 24149AC  26201.24020744  .00030236  00000+0  70557-3 0  9997
2 60494  97.3718 285.1351 0004959 142.2203 217.9393 15.42156998107390
FLOCK 4BE-34            
1 60495U 24149AD  26201.51749743  .00010256  00000+0  24210-3 0  9990
2 60495  97.3770 286.2588 0005273 146.9977 213.1600 15.42051001107468
TYCHE                   
1 60496U 24149AE  26201.44925227  .00002463  00000+0  99196-4 0  9993
2 60496  97.3741 278.8163 0003450 153.4166 206.7250 15.25801766106977
FLOCK 4BE-32            
1 60497U 24149AF  26201.20340345  .00011123  00000+0  25255-3 0  9997
2 60497  97.3708 285.5114 0005293 145.4250 214.7343 15.43196505107425
NUSAT-48 (HENRIETTA LE*)
1 60498U 24149AG  26201.18253888  .00004885  00000+0  16913-3 0  9998
2 60498  97.3906 282.5190 0005183 144.2292 215.9296 15.30323327107181
NUSAT-49 (KLARA DAN VO*)
1 60500U 24149AJ  26201.48765997  .00001788  00000+0  64524-4 0  9995
2 60500  97.3771 282.5497 0002916 152.8856 207.2538 15.29831221107220
FLOCK 4BE-11            
1 60501U 24149AK  26201.18086167  .00011742  00000+0  25950-3 0  9998
2 60501  97.3686 285.7497 0005314 144.7158 215.4443 15.43988307107445
YAM-7                   
1 60504U 24149AN  26201.17191955  .00003994  00000+0  13089-3 0  9992
2 60504  97.3768 281.2953 0004162 154.0323 206.1129 15.32221458107101
FLOCK 4BE-24            
1 60505U 24149AP  26201.48780825  .00013309  00000+0  29139-3 0  9991
2 60505  97.3697 286.3323 0005442 154.8499 205.3015 15.44231329107504
LUR-1                   
1 60506U 24149AQ  26201.46093231  .00003882  00000+0  13429-3 0  9998
2 60506  97.3722 280.0550 0004512 165.2922 194.8451 15.30486439107067
TANAGER-1               
1 60507U 24149AR  26201.13958867  .00000178  00000+0  57574-5 0  9994
2 60507  97.2317 295.2441 0001877 126.5110 233.6312 15.43948987108125
EAGLEEYE                
1 60508U 24149AS  26201.54022438  .00103188  00000+0  61091-3 0  9998
2 60508  97.3693 296.8915 0004633 173.8886 186.2438 15.77772632108182
FLOCK 4BE-29            
1 60509U 24149AT  26201.53852558  .00028225  00000+0  58382-3 0  9999
2 60509  97.3798 287.9457 0003905 163.7199 196.4176 15.45758899107564
TRANSPORTER-11 OBJECT AU
1 60510U 24149AU  26201.18198740  .00008934  00000+0  21824-3 0  9994
2 60510  97.3717 285.1849 0004693 153.3901 206.7588 15.41060337107395
FLOCK 4BE-2             
1 60511U 24149AV  26201.53044295  .00046460  00000+0  65773-3 0  9996
2 60511  97.3817 289.8693 0005484 158.8171 201.3312 15.56352237107680
FLOCK 4BE-13            
1 60512U 24149AW  26201.17965937  .00008519  00000+0  19719-3 0  9994
2 60512  97.3707 285.9522 0005416 141.5089 218.6546 15.42699839107451
FLOCK 4BE-27            
1 60513U 24149AX  26201.18584100  .00005321  00000+0  15924-3 0  9997
2 60513  97.3816 283.0639 0004397 166.3753 193.7610 15.34969657107208
FLOCK 4BE-9             
1 60514U 24149AY  26201.20111016  .00012095  00000+0  28825-3 0  9993
2 60514  97.3784 285.8138 0003965 158.0501 202.0917 15.41723490107403
