OBJECT_NAME,OBJECT_ID,EPOCH,MEAN_MOTION,ECCENTRICITY,INCLINATION,RA_OF_ASC_NODE,ARG_OF_PERICENTER,MEAN_ANOMALY,EPHEMERIS_TYPE,CLASSIFICATION_TYPE,NORAD_CAT_ID,ELEMENT_SET_NO,REV_AT_EPOCH,BSTAR,MEAN_MOTION_DOT,MEAN_MOTION_DDOT
FLOCK 4BE-7,2024-149P,2026-07-20T04:55:44.732640,15.41609773,.00044892,97.3745,284.5858,136.7116,223.4484,0,U,60481,999,10733,.36305438E-3,.15205E-3,0
TOMORROW-S2,2024-149T,2026-07-20T04:41:53.257920,15.33183185,.00041931,97.3805,282.0932,136.8595,223.2977,0,U,60485,999,10714,.13729245E-3,.4323E-4,0
FLOCK 4BE-36,2024-149U,2026-07-20T04:29:06.197856,15.43643230,.00051047,97.3731,286.0318,138.8538,221.3096,0,U,60486,999,10744,.23528592E-3,.10513E-3,0
FLOCK 4BE-25,2024-149V,2026-07-20T04:15:13.740768,15.39628075,.00039406,97.3783,284.5693,131.1113,229.0473,0,U,60487,999,10731,.21806513E-3,.8513E-4,0
FLOCK 4BE-31,2024-149W,2026-07-20T04:27:01.514880,15.45281314,.00040922,97.3787,286.9892,138.4531,221.7030,0,U,60488,999,10747,.26796753E-3,.12673E-3,0
FLOCK 4BE-20,2024-149X,2026-07-20T05:19:20.854560,15.38888737,.00053423,97.3681,283.4099,139.6915,220.4727,0,U,60489,999,10729,.18300189E-3,.6959E-4,0
FLOCK 4BE-23,2024-149Y,2026-07-20T05:18:24.282432,15.38446010,.00049877,97.3766,283.8024,143.1830,216.9759,0,U,60490,999,10727,.21451501E-3,.8055E-4,0
FLOCK 4BE-17,2024-149AA,2026-07-20T11:36:23.954976,15.40670706,.00046317,97.3759,285.1357,133.6849,226.4782,0,U,60492,999,10738,.24137662E-3,.9764E-4,0
NUSAT-50 (NANCY ROMAN),2024-149AB,2026-07-20T04:38:27.513600,15.30369458,.00048525,97.3775,282.2297,90.2689,269.9108,0,U,60493,999,10717,.17503705E-3,.5066E-4,0
FLOCK 4BE-22,2024-149AC,2026-07-20T05:45:53.922816,15.42156998,.00049594,97.3718,285.1351,142.2203,217.9393,0,U,60494,999,10739,.70557282E-3,.30236E-3,0
FLOCK 4BE-34,2024-149AD,2026-07-20T12:25:11.777952,15.42051001,.00052733,97.3770,286.2588,146.9977,213.1600,0,U,60495,999,10746,.2421034E-3,.10256E-3,0
TYCHE,2024-149AE,2026-07-20T10:46:55.396128,15.25801766,.00034509,97.3741,278.8163,153.4166,206.7250,0,U,60496,999,10697,.99196204E-4,.2463E-4,0
FLOCK 4BE-32,2024-149AF,2026-07-20T04:52:54.058080,15.43196505,.00052933,97.3708,285.5114,145.4250,214.7343,0,U,60497,999,10742,.25255015E-3,.11123E-3,0
NUSAT-48 (HENRIETTA LEAVITT),2024-149AG,2026-07-20T04:22:51.359232,15.30323327,.00051834,97.3906,282.5190,144.2292,215.9296,0,U,60498,999,10718,.16913427E-3,.4885E-4,0
NUSAT-49 (KLARA DAN VON NEUMANN),2024-149AJ,2026-07-20T11:42:13.821408,15.29831221,.00029166,97.3771,282.5497,152.8856,207.2538,0,U,60500,999,10722,.64523985E-4,.1788E-4,0
FLOCK 4BE-11,2024-149AK,2026-07-20T04:20:26.448288,15.43988307,.00053149,97.3686,285.7497,144.7158,215.4443,0,U,60501,999,10744,.25949606E-3,.11742E-3,0
YAM-7,2024-149AN,2026-07-20T04:07:33.849120,15.32221458,.00041622,97.3768,281.2953,154.0323,206.1129,0,U,60504,999,10710,.13088688E-3,.3994E-4,0
FLOCK 4BE-24,2024-149AP,2026-07-20T11:42:26.632800,15.44231329,.0005442,97.3697,286.3323,154.8499,205.3015,0,U,60505,999,10750,.29139375E-3,.13309E-3,0
LUR-1,2024-149AQ,2026-07-20T11:03:44.551584,15.30486439,.00045127,97.3722,280.0550,165.2922,194.8451,0,U,60506,999,10706,.13428575E-3,.3882E-4,0
TANAGER-1,2024-149AR,2026-07-20T03:21:00.461088,15.43948987,.00018777,97.2317,295.2441,126.5110,233.6312,0,U,60507,999,10812,.5757446E-5,.178E-5,0
EAGLEEYE,2024-149AS,2026-07-20T12:57:55.386432,15.77772632,.00046339,97.3693,296.8915,173.8886,186.2438,0,U,60508,999,10818,.61090845E-3,.103188E-2,0
FLOCK 4BE-29,2024-149AT,2026-07-20T12:55:28.610112,15.45758899,.00039051,97.3798,287.9457,163.7199,196.4176,0,U,60509,999,10756,.58382031E-3,.28225E-3,0
TRANSPORTER-11 OBJECT AU,2024-149AU,2026-07-20T04:22:03.711360,15.41060337,.00046936,97.3717,285.1849,153.3901,206.7588,0,U,60510,999,10739,.21823769E-3,.8934E-4,0
FLOCK 4BE-2,2024-149AV,2026-07-20T12:43:50.270880,15.56352237,.00054847,97.3817,289.8693,158.8171,201.3312,0,U,60511,999,10768,.65773187E-3,.4646E-3,0
FLOCK 4BE-13,2024-149AW,2026-07-20T04:18:42.569568,15.42699839,.00054166,97.3707,285.9522,141.5089,218.6546,0,U,60512,999,10745,.19718684E-3,.8519E-4,0
FLOCK 4BE-27,2024-149AX,2026-07-20T04:27:36.662400,15.34969657,.00043974,97.3816,283.0639,166.3753,193.7610,0,U,60513,999,10720,.15923662E-3,.5321E-4,0
FLOCK 4BE-9,2024-149AY,2026-07-20T04:49:35.917824,15.41723490,.00039658,97.3784,285.8138,158.0501,202.0917,0,U,60514,999,10740,.28825146E-3,.12095E-3,0
